{"type": "FeatureCollection", "features": [ {"type": "Feature", "properties": {"norad_id": 60453, "name": "LEGION 4", "group": "resource", "lat": -0.6727671466436759, "lon": -94.99271981383158, "alt_km": 518.8454512634298, "timestamp": "2025-12-04T19:33:59.289243+00:00", "meta": {"OBJECT_NAME": "LEGION 4", "OBJECT_ID": "2024-146B", "EPOCH": "2025-12-04T06:07:00.539040", "MEAN_MOTION": 15.15683365, "ECCENTRICITY": 0.0009962, "INCLINATION": 45.0385, "RA_OF_ASC_NODE": 87.3383, "ARG_OF_PERICENTER": 266.8579, "MEAN_ANOMALY": 93.116, "EPHEMERIS_TYPE": 0, "CLASSIFICATION_TYPE": "U", "NORAD_CAT_ID": 60453, "ELEMENT_SET_NO": 999, "REV_AT_EPOCH": 7129, "BSTAR": 0.00065710355, "MEAN_MOTION_DOT": 0.00012492, "MEAN_MOTION_DDOT": 0}, "tle": {"line1": "1 60453U 24146B   25338.25486735  .00012492  00000+0  65710-3 0  9995", "line2": "2 60453  45.0385  87.3383 0009962 266.8579  93.1160 15.15683365 71298"}}, "geometry": {"type": "Point", "coordinates": [-94.99271981383158, -0.6727671466436759]}}, {"type": "Feature", "properties": {"norad_id": 60989, "name": "SENTINEL-2C", "group": "resource", "lat": -66.93335246160675, "lon": -149.30475998972796, "alt_km": 796.8839171617965, "timestamp": "2025-12-04T19:33:59.289253+00:00", "meta": {"OBJECT_NAME": "SENTINEL-2C", "OBJECT_ID": "2024-157A", "EPOCH": "2025-12-04T04:58:56.341056", "MEAN_MOTION": 14.30825138, "ECCENTRICITY": 0.00011244, "INCLINATION": 98.5612, "RA_OF_ASC_NODE": 50.8132, "ARG_OF_PERICENTER": 101.6158, "MEAN_ANOMALY": 258.5151, "EPHEMERIS_TYPE": 0, "CLASSIFICATION_TYPE": "U", "NORAD_CAT_ID": 60989, "ELEMENT_SET_NO": 999, "REV_AT_EPOCH": 6510, "BSTAR": 0.00014768724, "MEAN_MOTION_DOT": 3.44e-06, "MEAN_MOTION_DDOT": 0}, "tle": {"line1": "1 60989U 24157A   25338.20759654  .00000344  00000+0  14769-3 0  9990", "line2": "2 60989  98.5612  50.8132 0001124 101.6158 258.5151 14.30825138 65108"}}, "geometry": {"type": "Point", "coordinates": [-149.30475998972796, -66.93335246160675]}}, {"type": "Feature", "properties": {"norad_id": 61735, "name": "IONOSFERA-M 1", "group": "resource", "lat": 25.117841713243568, "lon": -155.412383109167, "alt_km": 814.4344836288656, "timestamp": "2025-12-04T19:33:59.289261+00:00", "meta": {"OBJECT_NAME": "IONOSFERA-M 1", "OBJECT_ID": "2024-199A", "EPOCH": "2025-12-04T07:37:55.988832", "MEAN_MOTION": 14.22711197, "ECCENTRICITY": 0.00013358, "INCLINATION": 98.7408, "RA_OF_ASC_NODE": 208.2305, "ARG_OF_PERICENTER": 33.6102, "MEAN_ANOMALY": 326.5161, "EPHEMERIS_TYPE": 0, "CLASSIFICATION_TYPE": "U", "NORAD_CAT_ID": 61735, "ELEMENT_SET_NO": 999, "REV_AT_EPOCH": 9999, "BSTAR": 9.3737489e-05, "MEAN_MOTION_DOT": 1.66e-06, "MEAN_MOTION_DDOT": 0}, "tle": {"line1": "1 61735U 24199A   25338.31800913  .00000166  00000+0  93737-4 0  9998", "line2": "2 61735  98.7408 208.2305 0001335  33.6102 326.5161 14.22711197 99992"}}, "geometry": {"type": "Point", "coordinates": [-155.412383109167, 25.117841713243568]}}, {"type": "Feature", "properties": {"norad_id": 61736, "name": "IONOSFERA-M 2", "group": "resource", "lat": -27.907014332392436, "lon": 23.96257854575179, "alt_km": 821.9259804811327, "timestamp": "2025-12-04T19:33:59.289270+00:00", "meta": {"OBJECT_NAME": "IONOSFERA-M 2", "OBJECT_ID": "2024-199B", "EPOCH": "2025-12-04T06:46:34.063680", "MEAN_MOTION": 14.22713333, "ECCENTRICITY": 0.00014134, "INCLINATION": 98.7407, "RA_OF_ASC_NODE": 208.1077, "ARG_OF_PERICENTER": 120.5011, "MEAN_ANOMALY": 239.6307, "EPHEMERIS_TYPE": 0, "CLASSIFICATION_TYPE": "U", "NORAD_CAT_ID": 61736, "ELEMENT_SET_NO": 999, "REV_AT_EPOCH": 10311, "BSTAR": 9.8798327e-05, "MEAN_MOTION_DOT": 1.77e-06, "MEAN_MOTION_DDOT": 0}, "tle": {"line1": "1 61736U 24199B   25338.28233870  .00000177  00000+0  98798-4 0  9991", "line2": "2 61736  98.7407 208.1077 0001413 120.5011 239.6307 14.22713333103119"}}, "geometry": {"type": "Point", "coordinates": [23.96257854575179, -27.907014332392436]}}, {"type": "Feature", "properties": {"norad_id": 63772, "name": "BIOMASS", "group": "resource", "lat": -23.820177672786308, "lon": -19.65152303938095, "alt_km": 674.91817516644, "timestamp": "2025-12-04T19:33:59.289279+00:00", "meta": {"OBJECT_NAME": "BIOMASS", "OBJECT_ID": "2025-090A", "EPOCH": "2025-12-04T05:32:56.779008", "MEAN_MOTION": 14.67541483, "ECCENTRICITY": 0.00012268, "INCLINATION": 98.0707, "RA_OF_ASC_NODE": 163.3646, "ARG_OF_PERICENTER": 81.4266, "MEAN_ANOMALY": 278.7078, "EPHEMERIS_TYPE": 0, "CLASSIFICATION_TYPE": "U", "NORAD_CAT_ID": 63772, "ELEMENT_SET_NO": 999, "REV_AT_EPOCH": 3209, "BSTAR": 0.00047517219, "MEAN_MOTION_DOT": 2.648e-05, "MEAN_MOTION_DDOT": 0}, "tle": {"line1": "1 63772U 25090A   25338.23121272  .00002648  00000+0  47517-3 0  9998", "line2": "2 63772  98.0707 163.3646 0001226  81.4266 278.7078 14.67541483 32091"}}, "geometry": {"type": "Point", "coordinates": [-19.65152303938095, -23.820177672786308]}}, {"type": "Feature", "properties": {"norad_id": 64694, "name": "GOSAT-GW (IBUKI GW)", "group": "resource", "lat": 52.06639799525707, "lon": -95.97774868865177, "alt_km": 662.9946917064235, "timestamp": "2025-12-04T19:33:59.289288+00:00", "meta": {"OBJECT_NAME": "GOSAT-GW (IBUKI GW)", "OBJECT_ID": "2025-141A", "EPOCH": "2025-11-30T05:41:32.267328", "MEAN_MOTION": 14.67567435, "ECCENTRICITY": 0.00014369, "INCLINATION": 98.0401, "RA_OF_ASC_NODE": 269.9775, "ARG_OF_PERICENTER": 82.921, "MEAN_ANOMALY": 277.2158, "EPHEMERIS_TYPE": 0, "CLASSIFICATION_TYPE": "U", "NORAD_CAT_ID": 64694, "ELEMENT_SET_NO": 999, "REV_AT_EPOCH": 2266, "BSTAR": 0.00019762357, "MEAN_MOTION_DOT": 1.074e-05, "MEAN_MOTION_DDOT": 0}, "tle": {"line1": "1 64694U 25141A   25334.23717902  .00001074  00000+0  19762-3 0  9999", "line2": "2 64694  98.0401 269.9775 0001436  82.9210 277.2158 14.67567435 22660"}}, "geometry": {"type": "Point", "coordinates": [-95.97774868865177, 52.06639799525707]}}, {"type": "Feature", "properties": {"norad_id": 64876, "name": "IONOSFERA-M 3", "group": "resource", "lat": -69.41344339185113, "lon": -35.40243798017769, "alt_km": 829.1143093115006, "timestamp": "2025-12-04T19:33:59.289297+00:00", "meta": {"OBJECT_NAME": "IONOSFERA-M 3", "OBJECT_ID": "2025-155A", "EPOCH": "2025-12-04T08:04:31.293120", "MEAN_MOTION": 14.214379, "ECCENTRICITY": 0.0002383, "INCLINATION": 98.5771, "RA_OF_ASC_NODE": 300.441, "ARG_OF_PERICENTER": 73.2184, "MEAN_ANOMALY": 286.9255, "EPHEMERIS_TYPE": 0, "CLASSIFICATION_TYPE": "U", "NORAD_CAT_ID": 64876, "ELEMENT_SET_NO": 999, "REV_AT_EPOCH": 1872, "BSTAR": 0.00010171626, "MEAN_MOTION_DOT": 1.8e-06, "MEAN_MOTION_DDOT": 0}, "tle": {"line1": "1 64876U 25155A   25338.33647330  .00000180  00000+0  10172-3 0  9991", "line2": "2 64876  98.5771 300.4410 0002383  73.2184 286.9255 14.21437900 18729"}}, "geometry": {"type": "Point", "coordinates": [-35.40243798017769, -69.41344339185113]}}, {"type": "Feature", "properties": {"norad_id": 64877, "name": "IONOSFERA-M 4", "group": "resource", "lat": 68.74942669917715, "lon": 143.66095764219293, "alt_km": 812.8098045831584, "timestamp": "2025-12-04T19:33:59.289305+00:00", "meta": {"OBJECT_NAME": "IONOSFERA-M 4", "OBJECT_ID": "2025-155B", "EPOCH": "2025-12-04T07:13:39.747936", "MEAN_MOTION": 14.2143892, "ECCENTRICITY": 0.00017381, "INCLINATION": 98.577, "RA_OF_ASC_NODE": 300.3263, "ARG_OF_PERICENTER": 72.1498, "MEAN_ANOMALY": 287.9869, "EPHEMERIS_TYPE": 0, "CLASSIFICATION_TYPE": "U", "NORAD_CAT_ID": 64877, "ELEMENT_SET_NO": 999, "REV_AT_EPOCH": 1871, "BSTAR": 0.00010248447, "MEAN_MOTION_DOT": 1.81e-06, "MEAN_MOTION_DDOT": 0}, "tle": {"line1": "1 64877U 25155B   25338.30115449  .00000181  00000+0  10248-3 0  9995", "line2": "2 64877  98.5770 300.3263 0001738  72.1498 287.9869 14.21438920 18717"}}, "geometry": {"type": "Point", "coordinates": [143.66095764219293, 68.74942669917715]}}, {"type": "Feature", "properties": {"norad_id": 64899, "name": "MICROCARB", "group": "resource", "lat": -79.30725812045671, "lon": -173.88241129253984, "alt_km": 662.6199249747051, "timestamp": "2025-12-04T19:33:59.289314+00:00", "meta": {"OBJECT_NAME": "MICROCARB", "OBJECT_ID": "2025-156A", "EPOCH": "2025-12-04T05:19:32.674944", "MEAN_MOTION": 14.72036215, "ECCENTRICITY": 0.00165667, "INCLINATION": 98.0034, "RA_OF_ASC_NODE": 53.7037, "ARG_OF_PERICENTER": 171.1964, "MEAN_ANOMALY": 188.9537, "EPHEMERIS_TYPE": 0, "CLASSIFICATION_TYPE": "U", "NORAD_CAT_ID": 64899, "ELEMENT_SET_NO": 999, "REV_AT_EPOCH": 1928, "BSTAR": 0.00025592321, "MEAN_MOTION_DOT": 1.561e-05, "MEAN_MOTION_DDOT": 0}, "tle": {"line1": "1 64899U 25156A   25338.22190596  .00001561  00000+0  25592-3 0  9998", "line2": "2 64899  98.0034  53.7037 0016566 171.1964 188.9537 14.72036215 19282"}}, "geometry": {"type": "Point", "coordinates": [-173.88241129253984, -79.30725812045671]}}, {"type": "Feature", "properties": {"norad_id": 64900, "name": "CO3D 3", "group": "resource", "lat": 12.778685471657298, "lon": 53.59897821054385, "alt_km": 506.7589147576491, "timestamp": "2025-12-04T19:33:59.289323+00:00", "meta": {"OBJECT_NAME": "CO3D 3", "OBJECT_ID": "2025-156B", "EPOCH": "2025-12-02T23:16:40.108224", "MEAN_MOTION": 15.2021179, "ECCENTRICITY": 0.00013753, "INCLINATION": 97.4352, "RA_OF_ASC_NODE": 53.4771, "ARG_OF_PERICENTER": 132.9697, "MEAN_ANOMALY": 227.1654, "EPHEMERIS_TYPE": 0, "CLASSIFICATION_TYPE": "U", "NORAD_CAT_ID": 64900, "ELEMENT_SET_NO": 999, "REV_AT_EPOCH": 1972, "BSTAR": 0.00042667501, "MEAN_MOTION_DOT": 9.183e-05, "MEAN_MOTION_DDOT": 0}, "tle": {"line1": "1 64900U 25156B   25336.96990866  .00009183  00000+0  42668-3 0  9999", "line2": "2 64900  97.4352  53.4771 0001375 132.9697 227.1654 15.20211790 19725"}}, "geometry": {"type": "Point", "coordinates": [53.59897821054385, 12.778685471657298]}}]}